[{"OBJECT_NAME":"STARLINK-31223","OBJECT_ID":"2024-019N","EPOCH":"2026-03-09T12:04:13.415520","MEAN_MOTION":15.2757045,"ECCENTRICITY":0.00012583,"INCLINATION":42.999,"RA_OF_ASC_NODE":249.9997,"ARG_OF_PERICENTER":224.9232,"MEAN_ANOMALY":135.1518,"EPHEMERIS_TYPE":0,"CLASSIFICATION_TYPE":"U","NORAD_CAT_ID":58865,"ELEMENT_SET_NO":999,"REV_AT_EPOCH":11903,"BSTAR":6.2520406e-5,"MEAN_MOTION_DOT":1.458e-5,"MEAN_MOTION_DDOT":0},{"OBJECT_NAME":"CZ-2F DEB","OBJECT_ID":"2026-024F","EPOCH":"2026-03-09T08:22:27.145056","MEAN_MOTION":15.03733997,"ECCENTRICITY":0.03102592,"INCLINATION":49.7935,"RA_OF_ASC_NODE":23.5997,"ARG_OF_PERICENTER":270.0739,"MEAN_ANOMALY":86.4659,"EPHEMERIS_TYPE":0,"CLASSIFICATION_TYPE":"U","NORAD_CAT_ID":67719,"ELEMENT_SET_NO":999,"REV_AT_EPOCH":419,"BSTAR":0.0038997444,"MEAN_MOTION_DOT":0.00165167,"MEAN_MOTION_DDOT":0}]
